CCSDS_OMM_VERS,COMMENT,CREATION_DATE,ORIGINATOR,OBJECT_NAME,OBJECT_ID,CENTER_NAME,REF_FRAME,TIME_SYSTEM,MEAN_ELEMENT_THEORY,EPOCH,MEAN_MOTION,ECCENTRICITY,INCLINATION,RA_OF_ASC_NODE,ARG_OF_PERICENTER,MEAN_ANOMALY,EPHEMERIS_TYPE,CLASSIFICATION_TYPE,NORAD_CAT_ID,ELEMENT_SET_NO,REV_AT_EPOCH,BSTAR,MEAN_MOTION_DOT,MEAN_MOTION_DDOT,SEMIMAJOR_AXIS,PERIOD,APOAPSIS,PERIAPSIS,OBJECT_TYPE,RCS_SIZE,COUNTRY_CODE,LAUNCH_DATE,SITE,DECAY_DATE,FILE,GP_ID,TLE_LINE0,TLE_LINE1,TLE_LINE2
"2.0","GENERATED VIA SPACE-TRACK.ORG API","2019-06-18T03:29:51","18 SPCS","OBJECT AC","2019-029AC","EARTH","TEME","UTC","SGP4","2019-06-17T21:06:02.352096","15.05151971","0.00023340","53.0007","60.8760","108.4405","251.6837","0","U","44261","999","295","-0.03030500000000","-0.00412289","0.0000000000000","6929.176","95.671","552.658","549.423","TBA","LARGE","US","2019-05-24","AFETR","","2496401","133460696","0 OBJECT AC","1 44261U 19029AC  19168.87919389 -.00412289 +00000-0 -30305-1 0  9997","2 44261 053.0007 060.8760 0002334 108.4405 251.6837 15.05151971002958"
"2.0","GENERATED VIA SPACE-TRACK.ORG API","2019-06-18T06:40:16","18 SPCS","AEOLUS","2018-066A","EARTH","TEME","UTC","SGP4","2019-06-17T23:19:30.344736","15.86723844","0.00032760","96.7089","175.8212","20.6593","339.5574","0","U","43600","999","4741","0.00000000000000","-0.00000136","0.0000000000000","6689.612","90.753","313.668","309.285","PAYLOAD","LARGE","ESA","2018-08-22","FRGUI","","2496527","133482645","0 AEOLUS","1 43600U 18066A   19168.97187899 -.00000136  00000-0  00000+0 0  9997","2 43600  96.7089 175.8212 0003276  20.6593 339.5574 15.86723844 47413"
"2.0","GENERATED VIA SPACE-TRACK.ORG API","2019-06-18T06:20:16","18 SPCS","OBJECT AC","2019-029AC","EARTH","TEME","UTC","SGP4","2019-06-18T01:52:50.676384","15.05257698","0.00021930","53.0010","59.9820","106.8134","253.3094","0","U","44261","999","392","-0.02439900000000","-0.00336475","0.0000000000000","6928.851","95.664","552.236","549.197","TBA","LARGE","US","2019-05-24","AFETR","","2496430","133480226","0 OBJECT AC","1 44261U 19029AC  19169.07836431 -.00336475  00000-0 -24399-1 0  9994","2 44261  53.0010  59.9820 0002193 106.8134 253.3094 15.05257698  3927"
"2.0","GENERATED VIA SPACE-TRACK.ORG API","2019-06-18T14:20:17","18 SPCS","OBJECT AC","2019-029AC","EARTH","TEME","UTC","SGP4","2019-06-18T08:15:35.035200","15.05471765","0.00023720","53.0015","58.7916","113.9643","246.1593","0","U","44261","999","396","-0.00659980000000","-0.00094891","0.0000000000000","6928.194","95.651","551.703","548.416","TBA","LARGE","US","2019-05-24","AFETR","","2496591","133483813","0 OBJECT AC","1 44261U 19029AC  19169.34415550 -.00094891  00000-0 -65998-2 0  9993","2 44261  53.0015  58.7916 0002372 113.9643 246.1593 15.05471765  3969"
"2.0","GENERATED VIA SPACE-TRACK.ORG API","2019-06-18T13:30:12","18 SPCS","AEOLUS","2018-066A","EARTH","TEME","UTC","SGP4","2019-06-18T11:26:00.100320","15.86744273","0.00058240","96.7224","176.3181","106.9305","253.3184","0","U","43600","999","4749","0.00000000000000","-0.00000137","0.0000000000000","6689.554","90.751","315.315","307.523","PAYLOAD","LARGE","ESA","2018-08-22","FRGUI","","2496560","133483125","0 AEOLUS","1 43600U 18066A   19169.47639005 -.00000137  00000-0  00000+0 0  9995","2 43600  96.7224 176.3181 0005824 106.9305 253.3184 15.86744273 47492"
"2.0","GENERATED VIA SPACE-TRACK.ORG API","2019-06-18T21:20:11","18 SPCS","AEOLUS","2018-066A","EARTH","TEME","UTC","SGP4","2019-06-18T12:56:48.207840","15.86779823","0.00064060","96.7156","176.3757","82.6688","277.6265","0","U","43600","999","4750","0.00000000000000","-0.00000137","0.0000000000000","6689.454","90.749","315.605","307.034","PAYLOAD","LARGE","ESA","2018-08-22","FRGUI","","2496768","133563256","0 AEOLUS","1 43600U 18066A   19169.53944685 -.00000137  00000-0  00000+0 0  9995","2 43600  96.7156 176.3757 0006406  82.6688 277.6265 15.86779823 47506"
"2.0","GENERATED VIA SPACE-TRACK.ORG API","2019-06-19T06:40:18","18 SPCS","AEOLUS","2018-066A","EARTH","TEME","UTC","SGP4","2019-06-18T23:32:27.909312","15.86741584","0.00021990","96.6986","176.8084","64.2312","295.8153","0","U","43600","999","4757","0.00000000000000","-0.00000135","0.0000000000000","6689.562","90.752","312.898","309.956","PAYLOAD","LARGE","ESA","2018-08-22","FRGUI","","2497056","133588667","0 AEOLUS","1 43600U 18066A   19169.98087858 -.00000135  00000-0  00000+0 0  9992","2 43600  96.6986 176.8084 0002199  64.2312 295.8153 15.86741584 47577"
"2.0","GENERATED VIA SPACE-TRACK.ORG API","2019-06-19T14:20:16","18 SPCS","OBJECT AC","2019-029AC","EARTH","TEME","UTC","SGP4","2019-06-19T01:49:24.389472","15.02376997","0.00143800","53.0035","55.5253","98.2536","262.0082","0","U","44261","999","407","-0.00709540000000","-0.00094164","0.0000000000000","6937.705","95.848","569.547","549.594","TBA","LARGE","US","2019-05-24","AFETR","","2497110","133589725","0 OBJECT AC","1 44261U 19029AC  19170.07597673 -.00094164  00000-0 -70954-2 0  9993","2 44261  53.0035  55.5253 0014380  98.2536 262.0082 15.02376997  4079"
"2.0","GENERATED VIA SPACE-TRACK.ORG API","2019-06-22T04:40:31","18 SPCS","OBJECT AC","2019-029AC","EARTH","TEME","UTC","SGP4","2019-06-19T08:09:38.927232","15.05509025","0.00020470","53.0028","54.3216","106.4949","253.6264","0","U","44261","999","317","-0.00016131000000","-0.00002624","0.0000000000000","6928.080","95.648","551.363","548.527","TBA","LARGE","US","2019-05-24","AFETR","","2498430","133789118","0 OBJECT AC","1 44261U 19029AC  19170.34003388 -.00002624 +00000-0 -16131-3 0  9996","2 44261 053.0028 054.3216 0002047 106.4949 253.6264 15.05509025003175"
"2.0","GENERATED VIA SPACE-TRACK.ORG API","2019-06-19T13:10:11","18 SPCS","AEOLUS","2018-066A","EARTH","TEME","UTC","SGP4","2019-06-19T11:39:00.414144","15.86782167","0.00056790","96.7216","177.3129","75.9267","284.4786","0","U","43600","999","4765","0.00000000000000","-0.00000137","0.0000000000000","6689.448","90.749","315.112","307.514","PAYLOAD","LARGE","ESA","2018-08-22","FRGUI","","2497082","133589165","0 AEOLUS","1 43600U 18066A   19170.48542146 -.00000137  00000-0  00000+0 0  9997","2 43600  96.7216 177.3129 0005679  75.9267 284.4786 15.86782167 47651"
"2.0","GENERATED VIA SPACE-TRACK.ORG API","2019-06-20T11:20:15","18 SPCS","AEOLUS","2018-066A","EARTH","TEME","UTC","SGP4","2019-06-19T23:45:26.965152","15.86779768","0.00077580","96.7204","177.8075","47.1108","313.0595","0","U","43600","999","4773","0.00000000000000","-0.00000138","0.0000000000000","6689.455","90.749","316.509","306.130","PAYLOAD","LARGE","ESA","2018-08-22","FRGUI","","2497634","133658433","0 AEOLUS","1 43600U 18066A   19170.98989543 -.00000138  00000-0  00000+0 0  9999","2 43600  96.7204 177.8075 0007758  47.1108 313.0595 15.86779768 47737"
"2.0","GENERATED VIA SPACE-TRACK.ORG API","2019-06-20T14:40:15","18 SPCS","AEOLUS","2018-066A","EARTH","TEME","UTC","SGP4","2019-06-20T11:51:57.146688","15.86784970","0.00085400","96.7176","178.3034","45.8827","314.3578","0","U","43600","999","4781","0.00000000000000","-0.00000138","0.0000000000000","6689.440","90.749","317.018","305.592","PAYLOAD","LARGE","ESA","2018-08-22","FRGUI","","2497717","133660354","0 AEOLUS","1 43600U 18066A   19171.49441142 -.00000138  00000-0  00000+0 0  9994","2 43600  96.7176 178.3034 0008540  45.8827 314.3578 15.86784970 47814"
"2.0","GENERATED VIA SPACE-TRACK.ORG API","2019-06-20T21:30:11","18 SPCS","AEOLUS","2018-066A","EARTH","TEME","UTC","SGP4","2019-06-20T13:22:45.206688","15.86830645","0.00057740","96.7118","178.3592","75.7633","284.6984","0","U","43600","999","4782","0.00000000000000","-0.00000137","0.0000000000000","6689.312","90.746","315.039","307.314","PAYLOAD","LARGE","ESA","2018-08-22","FRGUI","","2497768","133699253","0 AEOLUS","1 43600U 18066A   19171.55746767 -.00000137  00000-0  00000+0 0  9991","2 43600  96.7118 178.3592 0005774  75.7633 284.6984 15.86830645 47824"
"2.0","GENERATED VIA SPACE-TRACK.ORG API","2019-06-21T06:50:16","18 SPCS","AEOLUS","2018-066A","EARTH","TEME","UTC","SGP4","2019-06-20T23:58:21.037440","15.86794105","0.00098580","96.7081","178.7957","40.5793","319.3825","0","U","43600","999","4789","0.00000000000000","-0.00000139","0.0000000000000","6689.414","90.749","317.874","304.685","PAYLOAD","LARGE","ESA","2018-08-22","FRGUI","","2498055","133724266","0 AEOLUS","1 43600U 18066A   19171.99885460 -.00000139  00000-0  00000+0 0  9995","2 43600  96.7081 178.7957 0009858  40.5793 319.3825 15.86794105 47893"
"2.0","GENERATED VIA SPACE-TRACK.ORG API","2019-06-22T04:40:31","18 SPCS","AEOLUS","2018-066A","EARTH","TEME","UTC","SGP4","2019-06-21T13:35:42.682272","15.86795034","0.00097550","96.7100","179.3564","40.1611","320.0428","0","U","43600","999","4798","0.00000000000000","-0.00000139","0.0000000000000","6689.412","90.748","317.802","304.751","PAYLOAD","LARGE","ESA","2018-08-22","FRGUI","","2498430","133788544","0 AEOLUS","1 43600U 18066A   19172.56646623 -.00000139 +00000-0 +00000-0 0  9996","2 43600 096.7100 179.3564 0009755 040.1611 320.0428 15.86795034047987"
"2.0","GENERATED VIA SPACE-TRACK.ORG API","2019-06-22T06:40:15","18 SPCS","AEOLUS","2018-066A","EARTH","TEME","UTC","SGP4","2019-06-22T00:11:23.357472","15.86803578","0.00080230","96.7104","179.7859","63.4982","296.7992","0","U","43600","999","4805","0.00000000000000","-0.00000138","0.0000000000000","6689.388","90.748","316.620","305.886","PAYLOAD","LARGE","ESA","2018-08-22","FRGUI","","2498536","133810561","0 AEOLUS","1 43600U 18066A   19173.00790923 -.00000138  00000-0  00000+0 0  9997","2 43600  96.7104 179.7859 0008023  63.4982 296.7992 15.86803578 48055"
